{
  "norad_id": 41032,
  "name": "COSMOS 2510",
  "history": [
    {
      "epoch": "2026-03-27T08:07:05.535264",
      "apogee_km": 39269.517152857654,
      "perigee_km": 1019.4641239728053,
      "latitude_deg": 63.39866133644168,
      "longitude_deg": 19.672816959908232,
      "semi_major_axis_km": 26522.627638415233,
      "eccentricity": 0.7210834,
      "inclination_deg": 63.4773,
      "raan_deg": 357.501,
      "arg_perigee_deg": 274.5967,
      "mean_anomaly_deg": 13.8817,
      "mean_motion_rev_day": 2.00991615
    }
  ]
}